[{"OBJECT_NAME":"KAZSTSAT","OBJECT_ID":"2018-099AB","EPOCH":"2026-03-09T14:51:18.118944","MEAN_MOTION":14.99620503,"ECCENTRICITY":0.0006528,"INCLINATION":97.4396,"RA_OF_ASC_NODE":105.0128,"ARG_OF_PERICENTER":11.1145,"MEAN_ANOMALY":349.0222,"EPHEMERIS_TYPE":0,"CLASSIFICATION_TYPE":"U","NORAD_CAT_ID":43783,"ELEMENT_SET_NO":999,"REV_AT_EPOCH":39638,"BSTAR":0.00011446,"MEAN_MOTION_DOT":1.354e-5,"MEAN_MOTION_DDOT":0},{"OBJECT_NAME":"STARLINK-5929","OBJECT_ID":"2023-037AX","EPOCH":"2026-03-09T21:22:57.659232","MEAN_MOTION":14.98334627,"ECCENTRICITY":0.00025567,"INCLINATION":69.9984,"RA_OF_ASC_NODE":263.9337,"ARG_OF_PERICENTER":270.8446,"MEAN_ANOMALY":89.2421,"EPHEMERIS_TYPE":0,"CLASSIFICATION_TYPE":"U","NORAD_CAT_ID":55959,"ELEMENT_SET_NO":999,"REV_AT_EPOCH":16450,"BSTAR":-7.0636574e-5,"MEAN_MOTION_DOT":-9.36e-6,"MEAN_MOTION_DDOT":0}]
